[
    {
        "Altitude(m)": 611965.1709160199,
        "Argument of Periapsis(deg)": 0.0,
        "Eccentricity": 0.0,
        "Inclination(deg)": 60.0,
        "Latitude(deg)": 59.140117793120815,
        "Longitude(deg)": -111.03011511370134,
        "Mean Anomaly(deg)": 81.8182,
        "RAAN(deg)": 275.0,
        "Satellite Name": "Test1 1215",
        "Satellite Number": 1215,
        "Semi-Major Axis(m)": 6980739.136638005,
        "Time(s)": 0
    },
    {
        "Altitude(m)": 611995.7962014085,
        "Argument of Periapsis(deg)": 0.00010418945913296404,
        "Eccentricity": 0.0,
        "Inclination(deg)": 60.0,
        "Latitude(deg)": 59.28321699429331,
        "Longitude(deg)": -109.89675401882428,
        "Mean Anomaly(deg)": 82.43830614546187,
        "RAAN(deg)": 274.9995799508602,
        "Satellite Name": "Test1 1215",
        "Satellite Number": 1215,
        "Semi-Major Axis(m)": 6980739.136638005,
        "Time(s)": 10
    },
    {
        "Altitude(m)": 612024.0806059819,
        "Argument of Periapsis(deg)": 0.0002083789182659281,
        "Eccentricity": 0.0,
        "Inclination(deg)": 60.0,
        "Latitude(deg)": 59.41563415839969,
        "Longitude(deg)": -108.7538694877795,
        "Mean Anomaly(deg)": 83.05841229092367,
        "RAAN(deg)": 274.9991599017205,
        "Satellite Name": "Test1 1215",
        "Satellite Number": 1215,
        "Semi-Major Axis(m)": 6980739.136638005,
        "Time(s)": 20
    },
    {
        "Altitude(m)": 612050.0079109903,
        "Argument of Periapsis(deg)": 0.00031256837739889213,
        "Eccentricity": 0.0,
        "Inclination(deg)": 60.0,
        "Latitude(deg)": 59.53722986200554,
        "Longitude(deg)": -107.60208952584948,
        "Mean Anomaly(deg)": 83.67851843638552,
        "RAAN(deg)": 274.9987398525808,
        "Satellite Name": "Test1 1215",
        "Satellite Number": 1215,
        "Semi-Major Axis(m)": 6980739.136638005,
        "Time(s)": 30
    },
    {
        "Altitude(m)": 612073.5632579215,
        "Argument of Periapsis(deg)": 0.0004167578365318562,
        "Eccentricity": 0.0,
        "Inclination(deg)": 60.0,
        "Latitude(deg)": 59.64787393794506,
        "Longitude(deg)": -106.44207775335788,
        "Mean Anomaly(deg)": 84.29862458184732,
        "RAAN(deg)": 274.998319803441,
        "Satellite Name": "Test1 1215",
        "Satellite Number": 1215,
        "Semi-Major Axis(m)": 6980739.136638005,
        "Time(s)": 40
    },
    {
        "Altitude(m)": 612094.7331555242,
        "Argument of Periapsis(deg)": 0.0005209472956648203,
        "Eccentricity": 0.0,
        "Inclination(deg)": 60.0,
        "Latitude(deg)": 59.747446128454776,
        "Longitude(deg)": -105.27453254672363,
        "Mean Anomaly(deg)": 84.91873072730917,
        "RAAN(deg)": 274.9978997543013,
        "Satellite Name": "Test1 1215",
        "Satellite Number": 1215,
        "Semi-Major Axis(m)": 6980739.136638005,
        "Time(s)": 50
    },
    {
        "Altitude(m)": 612113.5054861571,
        "Argument of Periapsis(deg)": 0.0006251367547977843,
        "Eccentricity": 0.0,
        "Inclination(deg)": 60.0,
        "Latitude(deg)": 59.83583670474211,
        "Longitude(deg)": -104.10018433373014,
        "Mean Anomaly(deg)": -274.461163127229,
        "RAAN(deg)": 274.99747970516154,
        "Satellite Name": "Test1 1215",
        "Satellite Number": 1215,
        "Semi-Major Axis(m)": 6980739.136638005,
        "Time(s)": 60
    },
    {
        "Altitude(m)": 612129.8695115028,
        "Argument of Periapsis(deg)": 0.0007293262139307483,
        "Eccentricity": 0.0,
        "Inclination(deg)": 60.0,
        "Latitude(deg)": 59.912947045927474,
        "Longitude(deg)": -102.91979256642912,
        "Mean Anomaly(deg)": -273.84105698176717,
        "RAAN(deg)": 274.9970596560218,
        "Satellite Name": "Test1 1215",
        "Satellite Number": 1215,
        "Semi-Major Axis(m)": 6980739.136638005,
        "Time(s)": 70
    },
    {
        "Altitude(m)": 612143.8158776156,
        "Argument of Periapsis(deg)": 0.0008335156730637124,
        "Eccentricity": 0.0,
        "Inclination(deg)": 60.0,
        "Latitude(deg)": 59.978690170535145,
        "Longitude(deg)": -101.73414390070326,
        "Mean Anomaly(deg)": -273.22095083630535,
        "RAAN(deg)": 274.99663960688207,
        "Satellite Name": "Test1 1215",
        "Satellite Number": 1215,
        "Semi-Major Axis(m)": 6980739.136638005,
        "Time(s)": 80
    },
    {
        "Altitude(m)": 612155.3366193579,
        "Argument of Periapsis(deg)": 0.0009377051321966765,
        "Eccentricity": 0.0,
        "Inclination(deg)": 60.0,
        "Latitude(deg)": 60.03299121406603,
        "Longitude(deg)": -100.54404857857358,
        "Mean Anomaly(deg)": -272.60084469084353,
        "RAAN(deg)": 274.9962195577423,
        "Satellite Name": "Test1 1215",
        "Satellite Number": 1215,
        "Semi-Major Axis(m)": 6980739.136638005,
        "Time(s)": 90
    },
    {
        "Altitude(m)": 612164.4251641162,
        "Argument of Periapsis(deg)": 0.0010418945913296407,
        "Eccentricity": 0.0,
        "Inclination(deg)": 60.0,
        "Latitude(deg)": 60.07578784668525,
        "Longitude(deg)": -99.35033655342127,
        "Mean Anomaly(deg)": -271.98073854538166,
        "RAAN(deg)": 274.99579950860254,
        "Satellite Name": "Test1 1215",
        "Satellite Number": 1215,
        "Semi-Major Axis(m)": 6980739.136638005,
        "Time(s)": 100
    },
    {
        "Altitude(m)": 612171.0763349101,
        "Argument of Periapsis(deg)": 0.0011460840504626045,
        "Eccentricity": 0.0,
        "Inclination(deg)": 60.0,
        "Latitude(deg)": 60.10703062568359,
        "Longitude(deg)": -98.15385490339713,
        "Mean Anomaly(deg)": -271.3606323999199,
        "RAAN(deg)": 274.99537945946287,
        "Satellite Name": "Test1 1215",
        "Satellite Number": 1215,
        "Semi-Major Axis(m)": 6980739.136638005,
        "Time(s)": 110
    },
    {
        "Altitude(m)": 612175.2863528312,
        "Argument of Periapsis(deg)": 0.0012502735095955685,
        "Eccentricity": 0.0,
        "Inclination(deg)": 60.0,
        "Latitude(deg)": 60.126683278115884,
        "Longitude(deg)": -96.95546354426799,
        "Mean Anomaly(deg)": -270.740526254458,
        "RAAN(deg)": 274.9949594103231,
        "Satellite Name": "Test1 1215",
        "Satellite Number": 1215,
        "Semi-Major Axis(m)": 6980739.136638005,
        "Time(s)": 120
    },
    {
        "Altitude(m)": 612177.0528388105,
        "Argument of Periapsis(deg)": 0.0013544629687285324,
        "Eccentricity": 0.0,
        "Inclination(deg)": 60.0,
        "Latitude(deg)": 60.1347229098765,
        "Longitude(deg)": -95.75603079546775,
        "Mean Anomaly(deg)": -270.1204201089962,
        "RAAN(deg)": 274.99453936118334,
        "Satellite Name": "Test1 1215",
        "Satellite Number": 1215,
        "Semi-Major Axis(m)": 6980739.136638005,
        "Time(s)": 130
    },
    {
        "Altitude(m)": 612176.3748147455,
        "Argument of Periapsis(deg)": 0.0014586524278614966,
        "Eccentricity": 0.0,
        "Inclination(deg)": 60.0,
        "Latitude(deg)": 60.1311401384122,
        "Longitude(deg)": -94.55643035622604,
        "Mean Anomaly(deg)": -269.5003139635344,
        "RAAN(deg)": 274.9941193120436,
        "Satellite Name": "Test1 1215",
        "Satellite Number": 1215,
        "Semi-Major Axis(m)": 6980739.136638005,
        "Time(s)": 140
    },
    {
        "Altitude(m)": 612173.2527039496,
        "Argument of Periapsis(deg)": 0.0015628418869944607,
        "Eccentricity": 0.0,
        "Inclination(deg)": 60.0,
        "Latitude(deg)": 60.115939147279335,
        "Longitude(deg)": -93.35753671225041,
        "Mean Anomaly(deg)": -268.88020781807256,
        "RAAN(deg)": 274.9936992629039,
        "Satellite Name": "Test1 1215",
        "Satellite Number": 1215,
        "Semi-Major Axis(m)": 6980739.136638005,
        "Time(s)": 150
    },
    {
        "Altitude(m)": 612167.688330952,
        "Argument of Periapsis(deg)": 0.0016670313461274247,
        "Eccentricity": 0.0,
        "Inclination(deg)": 60.0,
        "Latitude(deg)": 60.08913766180725,
        "Longitude(deg)": -92.16022053325898,
        "Mean Anomaly(deg)": -268.2601016726107,
        "RAAN(deg)": 274.99327921376414,
        "Satellite Name": "Test1 1215",
        "Satellite Number": 1215,
        "Semi-Major Axis(m)": 6980739.136638005,
        "Time(s)": 160
    },
    {
        "Altitude(m)": 612159.6849206383,
        "Argument of Periapsis(deg)": 0.0017712208052603888,
        "Eccentricity": 0.0,
        "Inclination(deg)": 60.0,
        "Latitude(deg)": 60.05076684619739,
        "Longitude(deg)": -90.96534562186379,
        "Mean Anomaly(deg)": -267.6399955271489,
        "RAAN(deg)": 274.99285916462435,
        "Satellite Name": "Test1 1215",
        "Satellite Number": 1215,
        "Semi-Major Axis(m)": 6980739.136638005,
        "Time(s)": 170
    },
    {
        "Altitude(m)": 612149.247096723,
        "Argument of Periapsis(deg)": 0.001875410264393353,
        "Eccentricity": 0.0,
        "Inclination(deg)": 60.0,
        "Latitude(deg)": 60.000871123450196,
        "Longitude(deg)": -89.77376443486361,
        "Mean Anomaly(deg)": -267.01988938168705,
        "RAAN(deg)": 274.9924391154846,
        "Satellite Name": "Test1 1215",
        "Satellite Number": 1215,
        "Semi-Major Axis(m)": 6980739.136638005,
        "Time(s)": 180
    },
    {
        "Altitude(m)": 612136.380879569,
        "Argument of Periapsis(deg)": 0.0019795997235263173,
        "Eccentricity": 0.0,
        "Inclination(deg)": 60.0,
        "Latitude(deg)": 59.93950792053925,
        "Longitude(deg)": -88.58631373477932,
        "Mean Anomaly(deg)": -266.39978323622523,
        "RAAN(deg)": 274.99201906634494,
        "Satellite Name": "Test1 1215",
        "Satellite Number": 1215,
        "Semi-Major Axis(m)": 6980739.136638005,
        "Time(s)": 190
    }
]